[{"OBJECT_NAME":"STARLINK-1420","OBJECT_ID":"2020-035AQ","EPOCH":"2026-03-10T00:00:02.999808","MEAN_MOTION":15.53743401,"ECCENTRICITY":0.00043485,"INCLINATION":53.0536,"RA_OF_ASC_NODE":20.9202,"ARG_OF_PERICENTER":112.4673,"MEAN_ANOMALY":249.9349,"EPHEMERIS_TYPE":0,"CLASSIFICATION_TYPE":"U","NORAD_CAT_ID":45695,"ELEMENT_SET_NO":999,"REV_AT_EPOCH":587,"BSTAR":0.0013975342,"MEAN_MOTION_DOT":0.00091715,"MEAN_MOTION_DDOT":0},{"OBJECT_NAME":"OBJECT D","OBJECT_ID":"2023-072D","EPOCH":"2026-03-09T22:22:02.837856","MEAN_MOTION":15.56411819,"ECCENTRICITY":0.00020241,"INCLINATION":97.5083,"RA_OF_ASC_NODE":279.2529,"ARG_OF_PERICENTER":343.457,"MEAN_ANOMALY":16.6618,"EPHEMERIS_TYPE":0,"CLASSIFICATION_TYPE":"U","NORAD_CAT_ID":56746,"ELEMENT_SET_NO":999,"REV_AT_EPOCH":15536,"BSTAR":0.00095552133,"MEAN_MOTION_DOT":0.00067835,"MEAN_MOTION_DDOT":0}]
